HST                     
1 20580U 90037B   26197.41290602  .00003155  00000+0  94703-4 0  9993
2 20580  28.4721 240.7781 0002206 116.1577 243.9246 15.31067854793052
POLAR                   
1 23802U 96013A   26196.53578426  .00000188  00000+0  00000+0 0  9993
2 23802  79.8926 226.7156 6498828 208.1023  91.7323  1.29846063145237
SWAS                    
1 25560U 98071A   26197.36778752  .00001519  00000+0  10041-3 0  9997
2 25560  69.8942 152.2592 0007842 229.3464 130.7019 15.09751079501679
CXO                     
1 25867U 99040B   26198.46886808  .00000598  00000+0  00000+0 0  9994
2 25867  56.6226 115.7943 7787022 310.0504   0.5333  0.37805709 17431
XMM-NEWTON              
1 25989U 99066A   26199.26509818 -.00000005  00000+0  00000+0 0  9993
2 25989  64.3180 282.5861 4665036  64.3602 359.9798  0.50127855 23154
TERRA                   
1 25994U 99068A   26197.88536293  .00000171  00000+0  43683-4 0  9996
2 25994  97.9440 246.2517 0003480 119.2437 353.1464 14.61124440413947
CLUSTER II-FM7 (SAMBA)  
1 26410U 00041A   26197.13957185  .00051232 -58450-4  00000+0 0  9991
2 26410 149.8273  56.2567 9088690 273.7641 359.2168  0.44844033 20444
CLUSTER II-FM8 (TANGO)  
1 26464U 00045B   26195.45112017  .00019821  00000+0  00000+0 0  9994
2 26464 150.0407  57.1141 9091460 274.4512   1.9889  0.44421596 20433
ODIN                    
1 26702U 01007A   26197.62795481  .00297242  34558-4  98530-3 0  9995
2 26702  97.3709 240.7371 0005291 152.6939 207.4613 15.90312605394056
TIMED                   
1 26998U 01055B   26197.37890833  .00000530  00000+0  51686-4 0  9998
2 26998  74.0666 176.2385 0002266 299.5266  60.5692 14.95345803335182
CORIOLIS                
1 27640U 03001A   26197.58103615  .00000032  00000+0  35603-4 0  9992
2 27640  98.7135 204.0177 0014965 125.4021 234.8555 14.19952086218395
SORCE                   
1 27651U 03004A   26197.82505705  .00001264  00000+0  10090-3 0  9990
2 27651  39.9913  92.5611 0018770 265.3731  94.4919 15.03846416276369
MOST                    
1 27843U 03031D   26197.56668845  .00000010  00000+0  24616-4 0  9997
2 27843  98.7053 204.8833 0010175 161.2084 198.9470 14.21327887194883
SCISAT 1                
1 27858U 03036A   26197.19553693  .00000256  00000+0  37370-4 0  9994
2 27858  73.9301 113.7073 0007319 181.5592 178.5563 14.81479508235741
SWIFT                   
1 28485U 04047A   26197.60848711  .00041559  00000+0  30413-3 0  9999
2 28485  20.5526 317.4567 0002327  39.5512 320.5104 15.71279814191495
HINODE (SOLAR-B)        
1 29479U 06041A   26197.61798479  .00000276  00000+0  55834-4 0  9991
2 29479  98.0548 213.3366 0017144 189.8725 170.2146 14.68659234 59191
SHIJIAN-6 02A (SJ-6 02A)
1 29505U 06046A   26197.83802150  .00001916  00000+0  99766-4 0  9996
2 29505  97.6342 239.1305 0004296  60.2845 299.8815 15.17254206 76764
SHIJIAN-6 02B (SJ-6 02B)
1 29506U 06046B   26197.87026807  .00000281  00000+0  26469-4 0  9992
2 29506  97.7140 226.7448 0013218 330.5550  29.4928 15.01438682 75195
FGRST (GLAST)           
1 33053U 08029A   26197.82342097  .00001930  00000+0  63774-4 0  9996
2 33053  25.5830 358.6806 0007837 319.2745  40.7207 15.24082163   216
SDO                     
1 36395U 10005A   26196.34409457 -.00000103  00000+0  00000+0 0  9995
2 36395  34.7081  85.9138 0001835  46.0485 182.8654  1.00277108 60342
CRYOSAT 2               
1 36508U 10013A   26197.85502925  .00000108  00000+0  25982-4 0  9996
2 36508  92.0358 284.5141 0002416  98.6918 261.4563 14.51898753862385
X-SAT                   
1 37389U 11015C   26197.85211002 -.00000067  00000+0 -11036-4 0  9991
2 37389  98.3527 173.4653 0012720 255.5856 104.3913 14.25213515791909
GCOM-W1 (SHIZUKU)       
1 38337U 12025A   26197.58187396  .00000192  00000+0  52654-4 0  9993
2 38337  98.2023 137.6930 0001296  78.1299  95.1125 14.57090811753311
NUSTAR                  
1 38358U 12031A   26197.91670139  .00004133  00000+0  20063-3 0  9999
2 38358   6.0249 171.0891 0007991 199.5147 186.6949 15.09050874  1305
NEOSSAT                 
1 39089U 13009D   26197.47776877  .00000043  00000+0  29721-4 0  9991
2 39089  98.4191  16.8158 0011517 153.5788 206.5987 14.35835927700948
BRITE-AUSTRIA           
1 39091U 13009F   26197.74041470  .00000065  00000+0  36704-4 0  9991
2 39091  98.4009  16.4468 0010847 146.3030 213.8848 14.36552858701290
IRIS                    
1 39197U 13033A   26197.52506164  .00000500  00000+0  63442-4 0  9990
2 39197  97.9319  36.7096 0023417 220.4423 139.5052 14.85938340704735
HISAKI (SPRINT-A)       
1 39253U 13049A   26197.73516823  .00000091  00000+0  32816-4 0  9992
2 39253  29.7215  69.7830 0136989 256.3628 102.1655 13.55546810635430
CASSIOPE                
1 39265U 13055A   26197.78998573  .00017486 -53812-6  18703-3 0  9994
2 39265  80.9127  30.6962 0282626 322.4642  35.7146 15.27478736672189
STSAT-3                 
1 39422U 13066G   26197.87523932  .00001452  00000+0  11266-3 0  9990
2 39422  97.6195 167.2844 0008879 298.4170  61.6160 15.02891052688661
SWARM B                 
1 39451U 13067A   26197.78865006  .00001927  00000+0  67771-4 0  9994
2 39451  87.7461 333.3245 0002263  84.0861 276.0646 15.28723065687764
